#dP2023 12 19 18  0  0.00000000      96 __u+U IGS20 EXT  IAC
## 2293 237600.00000000   900.00000000 60297 0.7500000000000
+  118   C06C07C08C10C11C12C13C14C16C19C20C21C22C23C24C25C26
+        C27C28C29C30C32C33C34C35C36C37C38C39C40C41C42C43C44
+        C45C46E02E03E04E05E07E08E09E10E11E12E13E15E18E19E21
+        E24E25E26E27E30E31E33E34E36G01G02G03G04G05G06G07G08
+        G09G10G11G12G13G14G15G16G17G18G19G20G21G22G23G24G25
+        G26G27G28G29G30G31G32J02J03J04R01R02R03R04R05R07R08
+        R09R11R12R13R14R15R16R17R18R19R20R21R22R24R25R26  0
++        10 13 11 15  8  8 11  7 10 10 10  8  8  9  9 10  7
++         8 10  7  9  8  7  8  6  9  9 11  9  9  8 10  9  8
++         8  9  7  7  8  7  7  7  7  7  8  7  8  7  8  8  7
++         6  7  7  7  7  8  8  8  8  7  7  7  8  7  6  7  6
++         8  7  7  7  7  6  7  6  7  8  6  7  7  7  9  7  7
++         6  6  7  7  7  7  8 10  8  8  7  8  9  7  8  8  7
++         8  9  8  9  8  8  7  8  7  9  9  8  9  7  8  7  0
%c M  cc GPS ccc cccc cccc cccc cccc ccccc ccccc ccccc ccccc
%c cc cc ccc ccc cccc cccc cccc cccc ccccc ccccc ccccc ccccc
%f  0.0000000  0.000000000  0.00000000000  0.000000000000000
%f  0.0000000  0.000000000  0.00000000000  0.000000000000000
%i    0    0    0    0      0      0      0      0         0
%i    0    0    0    0      0      0      0      0         0
/* IAC                                ULTRA-RAPID PREDICTION
/* S/V CLOCKS ARE ALIGNED TO GNSS TIME                      
/* G:C1WC2W R:C1PC2P E:C1XC5X C:C2IC6I J:C1CC2S             
/* PCV:IGS20_2290 OL/AL:FES2004  NONE     YN ORB:CoN CLK:CoN
*  2023 12 20 11 45  0.00000000
PC06  -6783.620342  39366.239141 -12991.098024    217.874917
PC07  -6063.698508  26968.709212  31935.866759   -504.474280
PC08 -19032.892088  29736.873669 -23217.655508    168.545225
PC10   2575.761186  28827.244058  31102.516208    -60.648609
PC11  16993.426464   5347.979464 -21406.286000    315.845329
PC12  14244.386448  22509.520300  -8275.610479    820.161048
PC13 -13111.512844  30230.617622 -26316.151453    397.911715
PC14  27728.625938   2259.195907   2523.925931   -209.381114
PC16  -7241.106224  38747.104516 -14282.368330   -236.177325
PC19 -25128.249659   4121.066671 -11377.651974   -949.512763
PC20 -26412.698963  -7361.567600   5133.199025     11.893511
PC21  11766.281104  15444.237632 -20038.909524   -966.820860
PC22  -9292.973471  13917.364950 -22333.274482   -179.465868
PC23  14862.205536 -23300.752256  -3835.330572   -801.174191
PC24  15692.339314   6059.713213  22241.241796    710.422916
PC25  21154.564892 -13267.427713  12421.039057    282.409403
PC26   1737.188292  20404.775798  18952.104836   -222.884633
PC27 -10000.910745 -26058.488978   -134.702794    244.857983
PC28   2193.580316 -23403.385670 -15030.428837    185.347735
PC29 -14930.314183   5857.561564  22836.388860    217.021872
PC30 -18082.129491 -14850.964241  15219.744074    -10.925521
PC32 -11736.083394 -15391.513821  20112.509789   -544.565914
PC33  25168.908912  -4240.188544  11295.742255   -941.788972
PC34  18277.267432  13397.946012 -16277.643159    328.971949
PC35  -1365.380597  23477.544219  14987.348865    476.433483
PC36 -21493.491889  12127.669494 -13028.167916    -85.528365
PC37   -788.934888 -20726.393127 -18653.357011   -932.298046
PC38 -23853.835402  31170.918886 -15605.376440    125.227511
PC39  -8750.079855  36060.001458 -19749.087589     -6.222551
PC40 -10177.180205  21021.008435  35131.357283    -48.620776
PC41  10124.847806 -13747.335027  22125.279661   -874.418766
PC42  25862.504851   8185.333499  -6554.571238   -478.025225
PC43  15436.062575  -4915.660600 -22726.429925     53.044472
PC44  10887.890775  25674.494532    286.972525    328.501788
PC45 -14654.314230  23377.793318   4271.558929    -56.502275
PC46 -16286.842525  -4924.613857 -22137.735327   -109.007158
PE02   8726.695142 -18426.687650 -21458.057924     88.167411
PE03  -2665.803974 -21312.181917  20357.130362    -81.375830
PE04  19446.792456  21745.532263  -4997.087510   -284.383709
PE05  15490.619606  -8512.826427  23740.416381   4702.298420
PE07 -24785.672914  -9738.119789 -12920.788984    -94.023136
PE08 -19103.144459 -21902.804504   5595.403425   -195.077049
PE09  24759.416861   9896.570932  12857.775448   -269.644901
PE10  12584.296423  13321.407533 -23245.258162   -587.778425
PE11  16088.510513   1397.952847 -24808.847440   3271.171898
PE12   7645.929661  21955.148267 -18308.060196   -826.845088
PE13 -15868.821209  -2219.995167  24899.004880    -19.721458
PE15  -7313.219633 -22346.881539  17996.161576    -75.696536
PE18  24720.161940    446.927504 -20441.039296    115.948582
PE19    306.501946  20234.951176 -21596.852245   -978.046996
PE21 -24976.506320  13906.367352   7691.082785   -569.770692
PE24  27242.029093   -591.771143  11511.911880   -496.169503
PE25  25173.007735 -13719.553800  -7343.556384     -1.705031
PE26 -14945.037597  19443.540503  16590.715291    315.097556
PE27 -27410.196747   1040.804338 -11148.070853   -228.759120
PE30 -13351.698324 -12548.318827 -23264.782907   -757.035312
PE31  13647.593151  12301.015173  23208.306556    -12.080774
PE33  -5784.841428  29033.707391    -53.378254      4.528080
PE34   5351.364862 -29099.870206    652.689969    -84.386673
PE36  15011.595192 -18901.201361 -17127.907248   -160.285457
PG01 -13215.041384  17947.479332  13838.882272    164.273366
PG02 -14649.563097  11715.763925  19223.664646   -512.918274
PG03 -22914.947724  11968.260250  -5972.561090     68.104089
PG04 -13377.371206   7949.323261 -21528.239313    244.428253
PG05  25304.249485  -5063.613979  -6667.643862   -154.826691
PG06   7807.668908  18388.180740 -17379.869304    472.197340
PG07  -4905.810053  25834.799248    310.036098    -16.595626
PG08 -19486.446533    582.943873  18137.876745   -157.934364
PG09  -2034.889181  16986.959645 -20388.822128     32.577069
PG10  -6983.470561 -13246.475148  22151.846348    -66.056084
PG11  13387.905271   7854.893002 -21533.348279   -508.146625
PG12  23766.973733 -10430.183150  -5737.302760   -459.365340
PG13  20721.780125  10530.274675  12844.837648    607.552040
PG14   2702.252583  15363.147221  21509.558194    275.996364
PG15  19532.043612  -2743.972341  17395.040713    108.812333
PG16 -24153.400977  -2380.852679 -11636.370702   -400.593584
PG17   9861.550318  21546.366140  12284.485384    721.652034
PG18   4692.714003 -26005.402922   1351.905856   -511.134524
PG19  16511.177290  20812.120530   2954.534455    415.052526
PG20  19751.545539   3235.569255 -17316.759938    395.712617
PG21 -15352.834710   6786.089141  20858.008934    140.986494
PG22  10074.044418  12839.592693  21341.482947     62.756327
PG23   7046.224758 -16625.809687  19428.425475    119.520084
PG24  14714.320315 -11755.793876  18160.025069   -397.255921
PG25  14613.943307 -16529.387642 -14917.092476    482.201822
PG26 -18223.118259  -6987.676230 -18306.083649    207.688064
PG27 -22461.816298 -11777.232697   8322.618807    -85.268621
PG28  -7333.855542 -20605.388271 -15095.039118    -75.086112
PG29   4126.928739 -15994.233552 -20820.905907   -609.600924
PG30   2463.930697  24459.595889   9827.983694   -455.301444
PG31 -11880.937820 -12650.262956 -20199.972082   -226.729798
PG32 -14327.523482 -20650.411172   9095.255630   -598.049894
PJ02 -31423.146482  25201.091129  17489.758639     -0.660661
PJ03 -26502.924032  27644.134874  22659.164246    -12.752380
PJ04 -29067.186115  20479.213025 -17501.594071     74.635984
PR01 -14413.692540 -12774.655475  16721.220902     72.567923
PR02 -24028.008358  -8664.534723    546.135158    -22.343003
PR03 -20050.625443   1016.311028 -15733.020314     91.263296
PR04  -5111.773788   9542.751529 -23070.568132    216.151183
PR05  12458.120144  13177.205513 -17915.251233    124.094339
PR07  19397.707097  -1588.796223  16493.286886     71.759749
PR08   4800.110192  -9827.819717  23099.684806    -73.752691
PR09  15376.746967   -534.012255  20383.434472    159.763264
PR11  14840.879926 -18891.328429  -8590.478166   -222.542908
PR12   -856.486532 -13218.082909 -21776.934642     34.678073
PR13 -13733.746365  -1453.682480 -21466.876447    -42.479455
PR14 -20329.566253  13459.694194  -7465.179148     25.797818
PR15 -14030.421759  18849.183087   9936.460096     83.804022
PR16    589.541682  13284.620297  21764.507037     21.717923
PR17  -9081.417867   7505.602818  22645.281205     45.122714
PR18  -2282.053613  21502.170283  13514.583127    117.813169
PR19   4275.008767  25128.073712  -1036.965090   -258.977247
PR20  10603.700161  12866.090570 -19273.274822   -105.484010
PR21   8903.161478  -7920.005778 -22541.603564    -62.431457
PR22   2593.821800 -22098.146739 -12454.509993     99.178764
PR24 -11567.468787 -11797.050439  19452.991113    -36.662656
PR25   9674.952650  -7167.576423 -22474.006195      3.355631
PR26   5565.645206  -9531.972945  23015.274755    -23.108145
EOF
